[{"OBJECT_NAME":"IRIDIUM 118","OBJECT_ID":"2017-039E","EPOCH":"2026-03-09T21:26:30.895296","MEAN_MOTION":14.34218754,"ECCENTRICITY":0.00022329,"INCLINATION":86.3973,"RA_OF_ASC_NODE":35.1169,"ARG_OF_PERICENTER":84.727,"MEAN_ANOMALY":275.4181,"EPHEMERIS_TYPE":0,"CLASSIFICATION_TYPE":"U","NORAD_CAT_ID":42807,"ELEMENT_SET_NO":999,"REV_AT_EPOCH":45571,"BSTAR":0.00012914778,"MEAN_MOTION_DOT":3.81e-6,"MEAN_MOTION_DDOT":0},{"OBJECT_NAME":"COSMOS 968","OBJECT_ID":"1977-119A","EPOCH":"2026-03-09T23:24:26.142912","MEAN_MOTION":14.37062131,"ECCENTRICITY":0.00183843,"INCLINATION":74.0311,"RA_OF_ASC_NODE":320.8873,"ARG_OF_PERICENTER":221.8423,"MEAN_ANOMALY":138.1326,"EPHEMERIS_TYPE":0,"CLASSIFICATION_TYPE":"U","NORAD_CAT_ID":10520,"ELEMENT_SET_NO":999,"REV_AT_EPOCH":52455,"BSTAR":6.4001923e-5,"MEAN_MOTION_DOT":1.64e-6,"MEAN_MOTION_DDOT":0}]
